CTC2_L_00261016-03
1 40146U 23316ZM  26070.40844907  .00000000  00000+0  00000-0 0  9990
2 40146 100.0000 180.0000 0000000   0.0000   0.0000 14.06899812    16
CTC2_L_00261016-04
1 40147U 24406ES  26070.40844907  .00000000  00000+0  00000-0 0  9992
2 40147 100.0000 180.0000 0000000   0.0000  90.0000 14.06899812    16
CTC2_L_00261017-01
1 40148U 22583CC  26070.40844907  .00000000  00000+0  00000-0 0  9997
2 40148 100.0000 192.0000 0000000   0.0000 192.0000 14.06899812    13
CTC2_L_00261017-02
1 40149U 26388CT  26070.40844907  .00000000  00000+0  00000-0 0  9995
2 40149 100.0000 192.0000 0000000   0.0000 282.0000 14.06899812    14
CTC2_L_00261017-03
1 40150U 25369BO  26070.40844907  .00000000  00000+0  00000-0 0  9995
2 40150 100.0000 192.0000 0000000   0.0000  12.0000 14.06899812    17
CTC2_L_00261017-04
1 40151U 22461SD  26070.40844907  .00000000  00000+0  00000-0 0  9996
2 40151 100.0000 192.0000 0000000   0.0000 102.0000 14.06899812    18
CTC2_L_00261018-01
1 40152U 23225IT  26070.40844907  .00000000  00000+0  00000-0 0  9996
2 40152 100.0000 204.0000 0000000   0.0000 204.0000 14.06899812    16
CTC2_L_00261018-02
1 40153U 24043WO  26070.40844907  .00000000  00000+0  00000-0 0  9996
2 40153 100.0000 204.0000 0000000   0.0000 294.0000 14.06899812    16
CTC2_L_00261018-03
1 40154U 23502IK  26070.40844907  .00000000  00000+0  00000-0 0  9996
2 40154 100.0000 204.0000 0000000   0.0000  24.0000 14.06899812    18
CTC2_L_00261018-04
1 40155U 25365GO  26070.40844907  .00000000  00000+0  00000-0 0  9996
2 40155 100.0000 204.0000 0000000   0.0000 114.0000 14.06899812    19
CTC2_L_00261019-01
1 40156U 22867DM  26070.40844907  .00000000  00000+0  00000-0 0  9991
2 40156 100.0000 216.0000 0000000   0.0000 216.0000 14.06899812    16
CTC2_L_00261019-02
1 40157U 22542NQ  26070.40844907  .00000000  00000+0  00000-0 0  9992
2 40157 100.0000 216.0000 0000000   0.0000 306.0000 14.06899812    17
CTC2_L_00261019-03
1 40158U 24412BD  26070.40844907  .00000000  00000+0  00000-0 0  9991
2 40158 100.0000 216.0000 0000000   0.0000  36.0000 14.06899812    18
CTC2_L_00261019-04
1 40159U 26094FP  26070.40844907  .00000000  00000+0  00000-0 0  9990
2 40159 100.0000 216.0000 0000000   0.0000 126.0000 14.06899812    19
CTC2_L_00261020-01
1 40160U 26345PK  26070.40844907  .00000000  00000+0  00000-0 0  9991
2 40160 100.0000 228.0000 0000000   0.0000 228.0000 14.06899812    17
CTC2_L_00261020-02
1 40161U 25988VY  26070.40844907  .00000000  00000+0  00000-0 0  9994
2 40161 100.0000 228.0000 0000000   0.0000 318.0000 14.06899812    18
CTC2_L_00261020-03
1 40162U 23298LR  26070.40844907  .00000000  00000+0  00000-0 0  9997
2 40162 100.0000 228.0000 0000000   0.0000  48.0000 14.06899812    19
CTC2_L_00261020-04
1 40163U 23181CF  26070.40844907  .00000000  00000+0  00000-0 0  9999
2 40163 100.0000 228.0000 0000000   0.0000 138.0000 14.06899812    10
CTC2_L_00261021-01
1 40164U 22545YM  26070.40844907  .00000000  00000+0  00000-0 0  9993
2 40164 100.0000 240.0000 0000000   0.0000 240.0000 14.06899812    19
CTC2_L_00261021-02
1 40165U 22303DR  26070.40844907  .00000000  00000+0  00000-0 0  9996
2 40165 100.0000 240.0000 0000000   0.0000 330.0000 14.06899812    10
CTC2_L_00261021-03
1 40166U 25816HP  26070.40844907  .00000000  00000+0  00000-0 0  9999
2 40166 100.0000 240.0000 0000000   0.0000  60.0000 14.06899812    11
CTC2_L_00261021-04
1 40167U 25203SE  26070.40844907  .00000000  00000+0  00000-0 0  9990
2 40167 100.0000 240.0000 0000000   0.0000 150.0000 14.06899812    12
CTC2_L_00261022-01
1 40168U 24150TM  26070.40844907  .00000000  00000+0  00000-0 0  9991
2 40168 100.0000 252.0000 0000000   0.0000 252.0000 14.06899812    19
CTC2_L_00261022-02
1 40169U 26854LM  26070.40844907  .00000000  00000+0  00000-0 0  9995
2 40169 100.0000 252.0000 0000000   0.0000 342.0000 14.06899812    10
CTC2_L_00261022-03
1 40170U 26575DI  26070.40844907  .00000000  00000+0  00000-0 0  9997
2 40170 100.0000 252.0000 0000000   0.0000  72.0000 14.06899812    12
CTC2_L_00261022-04
1 40171U 23104QH  26070.40844907  .00000000  00000+0  00000-0 0  9993
2 40171 100.0000 252.0000 0000000   0.0000 162.0000 14.06899812    13
CTC2_L_00261023-01
1 40172U 24085RL  26070.40844907  .00000000  00000+0  00000-0 0  9993
2 40172 100.0000 264.0000 0000000   0.0000 264.0000 14.06899812    10
CTC2_L_00261023-02
1 40173U 23229D   26070.40844907  .00000000  00000+0  00000-0 0  9993
2 40173 100.0000 264.0000 0000000   0.0000 354.0000 14.06899812    11
CTC2_L_00261023-03
1 40174U 26576FF  26070.40844907  .00000000  00000+0  00000-0 0  9992
2 40174 100.0000 264.0000 0000000   0.0000  84.0000 14.06899812    12
CTC2_L_00261023-04
1 40175U 26625HP  26070.40844907  .00000000  00000+0  00000-0 0  9998
2 40175 100.0000 264.0000 0000000   0.0000 174.0000 14.06899812    13
CTC2_L_00261024-01
1 40176U 25667JZ  26070.40844907  .00000000  00000+0  00000-0 0  9994
2 40176 100.0000 276.0000 0000000   0.0000 276.0000 14.06899812    10
CTC2_L_00261024-02
1 40177U 25565QW  26070.40844907  .00000000  00000+0  00000-0 0  9992
2 40177 100.0000 276.0000 0000000   0.0000   6.0000 14.06899812    12
CTC2_L_00261024-03
1 40178U 24418BG  26070.40844907  .00000000  00000+0  00000-0 0  9999
2 40178 100.0000 276.0000 0000000   0.0000  96.0000 14.06899812    12
CTC2_L_00261024-04
1 40179U 22469LE  26070.40844907  .00000000  00000+0  00000-0 0  9994
2 40179 100.0000 276.0000 0000000   0.0000 186.0000 14.06899812    13
CTC2_L_00261025-01
1 40180U 25846SO  26070.40844907  .00000000  00000+0  00000-0 0  9998
2 40180 100.0000 288.0000 0000000   0.0000 288.0000 14.06899812    11
CTC2_L_00261025-02
1 40181U 23440RZ  26070.40844907  .00000000  00000+0  00000-0 0  9997
2 40181 100.0000 288.0000 0000000   0.0000  18.0000 14.06899812    13
CTC2_L_00261025-03
1 40182U 23843BD  26070.40844907  .00000000  00000+0  00000-0 0  9995
2 40182 100.0000 288.0000 0000000   0.0000 108.0000 14.06899812    14
CTC2_L_00261025-04
1 40183U 22147RN  26070.40844907  .00000000  00000+0  00000-0 0  9992
2 40183 100.0000 288.0000 0000000   0.0000 198.0000 14.06899812    14
CTC2_L_00261026-01
1 40184U 26976LN  26070.40844907  .00000000  00000+0  00000-0 0  9997
2 40184 100.0000 300.0000 0000000   0.0000 300.0000 14.06899812    15
CTC2_L_00261026-02
1 40185U 26496OI  26070.40844907  .00000000  00000+0  00000-0 0  9995
2 40185 100.0000 300.0000 0000000   0.0000  30.0000 14.06899812    16
CTC2_L_00261026-03
1 40186U 26797MV  26070.40844907  .00000000  00000+0  00000-0 0  9990
2 40186 100.0000 300.0000 0000000   0.0000 120.0000 14.06899812    17
CTC2_L_00261026-04
1 40187U 23107BS  26070.40844907  .00000000  00000+0  00000-0 0  9993
2 40187 100.0000 300.0000 0000000   0.0000 210.0000 14.06899812    18
CTC2_L_00261027-01
1 40188U 23923SO  26070.40844907  .00000000  00000+0  00000-0 0  9990
2 40188 100.0000 312.0000 0000000   0.0000 312.0000 14.06899812    15
CTC2_L_00261027-02
1 40189U 23730PK  26070.40844907  .00000000  00000+0  00000-0 0  9997
2 40189 100.0000 312.0000 0000000   0.0000  42.0000 14.06899812    16
CTC2_L_00261027-03
1 40190U 22343XO  26070.40844907  .00000000  00000+0  00000-0 0  9998
2 40190 100.0000 312.0000 0000000   0.0000 132.0000 14.06899812    18
CTC2_L_00261027-04
1 40191U 24189PO  26070.40844907  .00000000  00000+0  00000-0 0  9999
2 40191 100.0000 312.0000 0000000   0.0000 222.0000 14.06899812    19
CTC2_L_00261028-01
1 40192U 26619QR  26070.40844907  .00000000  00000+0  00000-0 0  9990
2 40192 100.0000 324.0000 0000000   0.0000 324.0000 14.06899812    16
CTC2_L_00261028-02
1 40193U 24859WV  26070.40844907  .00000000  00000+0  00000-0 0  9995
2 40193 100.0000 324.0000 0000000   0.0000  54.0000 14.06899812    17
CTC2_L_00261028-03
1 40194U 26046EM  26070.40844907  .00000000  00000+0  00000-0 0  9996
2 40194 100.0000 324.0000 0000000   0.0000 144.0000 14.06899812    18
CTC2_L_00261028-04
1 40195U 23072UX  26070.40844907  .00000000  00000+0  00000-0 0  9993
2 40195 100.0000 324.0000 0000000   0.0000 234.0000 14.06899812    19
CTC2_L_00261029-01
1 40196U 26939HT  26070.40844907  .00000000  00000+0  00000-0 0  9999
2 40196 100.0000 336.0000 0000000   0.0000 336.0000 14.06899812    16
CTC2_L_00261029-02
1 40197U 22947LI  26070.40844907  .00000000  00000+0  00000-0 0  9995
2 40197 100.0000 336.0000 0000000   0.0000  66.0000 14.06899812    17
CTC2_L_00261029-03
1 40198U 26241MA  26070.40844907  .00000000  00000+0  00000-0 0  9997
2 40198 100.0000 336.0000 0000000   0.0000 156.0000 14.06899812    18
CTC2_L_00261029-04
1 40199U 26371CR  26070.40844907  .00000000  00000+0  00000-0 0  9992
2 40199 100.0000 336.0000 0000000   0.0000 246.0000 14.06899812    19
CTC2_L_00261030-01
1 40200U 22860WN  26070.40844907  .00000000  00000+0  00000-0 0  9994
2 40200 100.0000 348.0000 0000000   0.0000 348.0000 14.06899812    18
CTC2_L_00261030-02
1 40201U 25075RT  26070.40844907  .00000000  00000+0  00000-0 0  9996
2 40201 100.0000 348.0000 0000000   0.0000  78.0000 14.06899812    19
CTC2_L_00261030-03
1 40202U 24102CX  26070.40844907  .00000000  00000+0  00000-0 0  9997
2 40202 100.0000 348.0000 0000000   0.0000 168.0000 14.06899812    10
CTC2_L_00261030-04
1 40203U 23790OD  26070.40844907  .00000000  00000+0  00000-0 0  9990
2 40203 100.0000 348.0000 0000000   0.0000 258.0000 14.06899812    11
